STARLINK-31040          
1 58722U 24002T   26068.88291652 -.00000706  00000+0 -11731-4 0  9996
2 58722  53.1598 229.1187 0001148  98.5284 261.5847 15.30191897122043
TEVEL2-4                
1 63213U 25052D   26068.69417974  .00020990  00000+0  70363-3 0  9999
2 63213  97.4009 325.1237 0004733  95.3468 264.8313 15.30925813 54879
